[{"OBJECT_NAME":"STARLINK-32261","OBJECT_ID":"2024-183X","EPOCH":"2026-03-09T12:23:13.003872","MEAN_MOTION":15.30190043,"ECCENTRICITY":0.00012029,"INCLINATION":53.1601,"RA_OF_ASC_NODE":143.417,"ARG_OF_PERICENTER":82.6192,"MEAN_ANOMALY":277.4945,"EPHEMERIS_TYPE":0,"CLASSIFICATION_TYPE":"U","NORAD_CAT_ID":61530,"ELEMENT_SET_NO":999,"REV_AT_EPOCH":7962,"BSTAR":-5.1077391e-5,"MEAN_MOTION_DOT":-1.871e-5,"MEAN_MOTION_DDOT":0},{"OBJECT_NAME":"GEOSCAN 2 (RS92S2)","OBJECT_ID":"2025-155Q","EPOCH":"2026-03-09T23:01:48.939744","MEAN_MOTION":15.28709337,"ECCENTRICITY":0.00085277,"INCLINATION":97.4463,"RA_OF_ASC_NODE":37.5259,"ARG_OF_PERICENTER":140.9505,"MEAN_ANOMALY":219.2352,"EPHEMERIS_TYPE":0,"CLASSIFICATION_TYPE":"U","NORAD_CAT_ID":64890,"ELEMENT_SET_NO":999,"REV_AT_EPOCH":6561,"BSTAR":0.00051551761,"MEAN_MOTION_DOT":0.00014341,"MEAN_MOTION_DDOT":0}]
